STARLINK-31283          
1 59174U 24044Y   25297.83336806  .00051705  00000+0  18774-2 0  9998
2 59174  43.0019 107.3567 0001242 278.7813 330.3104 15.27543963  5867
STARLINK-31439          
1 59178U 24045A   25297.58195411  .00020880  00000+0  76591-3 0  9992
2 59178  42.9983 137.9074 0001064 253.4158 106.6577 15.27589770 28718
STARLINK-31410          
1 59179U 24045B   25296.98259497  .00010271  00000+0  40179-3 0  9997
2 59179  43.0004 144.6127 0001548 265.4042  94.6632 15.25922333 92253
STARLINK-31395          
1 59180U 24045C   25297.60202990 -.00000371  00000+0 -39760-5 0  9993
2 59180  43.0005 141.5185 0000964 270.1960  89.8781 15.27575963 92345
STARLINK-31486          
1 59181U 24045D   25297.58580745  .00013498  00000+0  49889-3 0  9991
2 59181  42.9988 137.9371 0000797 186.6655 173.4186 15.27595214 92380
STARLINK-31411          
1 59182U 24045E   25297.61343804 -.00000402  00000+0 -50919-5 0  9990
2 59182  43.0018 140.7463 0001187 247.6535 112.4191 15.27581756 92352
STARLINK-31382          
1 59184U 24045G   25297.60830558  .00013974  00000+0  51604-3 0  9994
2 59184  43.0007 140.7038 0000566 296.8346  63.2447 15.27599402 92350
STARLINK-31394          
1 59185U 24045H   25297.82133631  .00002350  00000+0  94894-4 0  9992
2 59185  42.9999 129.3518 0001444 271.3342  88.7344 15.27584366 92503
STARLINK-31403          
1 59186U 24045J   25297.79704605  .00006969  00000+0  26245-3 0  9998
2 59186  43.0000 118.5625 0001593 263.2294  96.8377 15.27591225 92563
STARLINK-31514          
1 59187U 24045K   25296.98784574  .00001245  00000+0  54756-4 0  9993
2 59187  42.9993 144.6423 0000671 233.6590 126.4200 15.27582625 92250
STARLINK-31478          
1 59188U 24045L   25297.30449705  .00008005  00000+0  30019-3 0  9991
2 59188  43.0023 142.7172 0000777 334.9310  25.1504 15.27571895 92304
STARLINK-31498          
1 59189U 24045M   25297.00326812  .00003987  00000+0  15426-3 0  9991
2 59189  42.9983 144.7578 0001443 262.6281  97.4406 15.27590000 92251
STARLINK-31563          
1 59190U 24045N   25297.61988294 -.00001851  00000+0 -57765-4 0  9991
2 59190  43.0021 140.7939 0001505 279.6209  80.4473 15.27579729 92354
STARLINK-31551          
1 59191U 24045P   25297.60879417  .00003639  00000+0  14166-3 0  9998
2 59191  43.0011 137.2766 0001373 267.7500  92.3194 15.27585744 92398
STARLINK-31536          
1 59192U 24045Q   25297.83336806  .00009564  00000+0  35686-3 0  9997
2 59192  43.0010 139.7758 0001628 263.7297 106.9475 15.27558205  5859
STARLINK-31548          
1 59193U 24045R   25297.00969067  .00007576  00000+0  28437-3 0  9995
2 59193  42.9992 144.8091 0001359 278.3732  81.6965 15.27598317 92252
STARLINK-31542          
1 59194U 24045S   25297.60573481  .00000911  00000+0  42616-4 0  9995
2 59194  42.9992 140.6835 0001241 270.2500  89.8209 15.27578225 92355
