[{"OBJECT_NAME":"STARLINK-31283","OBJECT_ID":"2024-044Y","EPOCH":"2025-10-24T20:00:03.000384","MEAN_MOTION":15.27543963,"ECCENTRICITY":0.0001242,"INCLINATION":43.0019,"RA_OF_ASC_NODE":107.3567,"ARG_OF_PERICENTER":278.7813,"MEAN_ANOMALY":330.3104,"EPHEMERIS_TYPE":0,"CLASSIFICATION_TYPE":"U","NORAD_CAT_ID":59174,"ELEMENT_SET_NO":999,"REV_AT_EPOCH":586,"BSTAR":0.0018774,"MEAN_MOTION_DOT":0.00051705,"MEAN_MOTION_DDOT":0},{"OBJECT_NAME":"STARLINK-31439","OBJECT_ID":"2024-045A","EPOCH":"2025-10-24T13:58:00.835104","MEAN_MOTION":15.2758977,"ECCENTRICITY":0.0001064,"INCLINATION":42.9983,"RA_OF_ASC_NODE":137.9074,"ARG_OF_PERICENTER":253.4158,"MEAN_ANOMALY":106.6577,"EPHEMERIS_TYPE":0,"CLASSIFICATION_TYPE":"U","NORAD_CAT_ID":59178,"ELEMENT_SET_NO":999,"REV_AT_EPOCH":2871,"BSTAR":0.00076591,"MEAN_MOTION_DOT":0.0002088,"MEAN_MOTION_DDOT":0},{"OBJECT_NAME":"STARLINK-31410","OBJECT_ID":"2024-045B","EPOCH":"2025-10-23T23:34:56.205408","MEAN_MOTION":15.25922333,"ECCENTRICITY":0.0001548,"INCLINATION":43.0004,"RA_OF_ASC_NODE":144.6127,"ARG_OF_PERICENTER":265.4042,"MEAN_ANOMALY":94.6632,"EPHEMERIS_TYPE":0,"CLASSIFICATION_TYPE":"U","NORAD_CAT_ID":59179,"ELEMENT_SET_NO":999,"REV_AT_EPOCH":9225,"BSTAR":0.00040178902,"MEAN_MOTION_DOT":0.00010271,"MEAN_MOTION_DDOT":0},{"OBJECT_NAME":"STARLINK-31395","OBJECT_ID":"2024-045C","EPOCH":"2025-10-24T14:26:55.383360","MEAN_MOTION":15.27575963,"ECCENTRICITY":9.64e-5,"INCLINATION":43.0005,"RA_OF_ASC_NODE":141.5185,"ARG_OF_PERICENTER":270.196,"MEAN_ANOMALY":89.8781,"EPHEMERIS_TYPE":0,"CLASSIFICATION_TYPE":"U","NORAD_CAT_ID":59180,"ELEMENT_SET_NO":999,"REV_AT_EPOCH":9234,"BSTAR":-3.976e-6,"MEAN_MOTION_DOT":-3.71e-6,"MEAN_MOTION_DDOT":0},{"OBJECT_NAME":"STARLINK-31486","OBJECT_ID":"2024-045D","EPOCH":"2025-10-24T14:03:33.763680","MEAN_MOTION":15.27595214,"ECCENTRICITY":7.97e-5,"INCLINATION":42.9988,"RA_OF_ASC_NODE":137.9371,"ARG_OF_PERICENTER":186.6655,"MEAN_ANOMALY":173.4186,"EPHEMERIS_TYPE":0,"CLASSIFICATION_TYPE":"U","NORAD_CAT_ID":59181,"ELEMENT_SET_NO":999,"REV_AT_EPOCH":9238,"BSTAR":0.00049889,"MEAN_MOTION_DOT":0.00013498,"MEAN_MOTION_DDOT":0},{"OBJECT_NAME":"STARLINK-31411","OBJECT_ID":"2024-045E","EPOCH":"2025-10-24T14:43:21.046656","MEAN_MOTION":15.27581756,"ECCENTRICITY":0.0001187,"INCLINATION":43.0018,"RA_OF_ASC_NODE":140.7463,"ARG_OF_PERICENTER":247.6535,"MEAN_ANOMALY":112.4191,"EPHEMERIS_TYPE":0,"CLASSIFICATION_TYPE":"U","NORAD_CAT_ID":59182,"ELEMENT_SET_NO":999,"REV_AT_EPOCH":9235,"BSTAR":-5.0919e-6,"MEAN_MOTION_DOT":-4.02e-6,"MEAN_MOTION_DDOT":0},{"OBJECT_NAME":"STARLINK-31382","OBJECT_ID":"2024-045G","EPOCH":"2025-10-24T14:35:57.602112","MEAN_MOTION":15.27599402,"ECCENTRICITY":5.66e-5,"INCLINATION":43.0007,"RA_OF_ASC_NODE":140.7038,"ARG_OF_PERICENTER":296.8346,"MEAN_ANOMALY":63.2447,"EPHEMERIS_TYPE":0,"CLASSIFICATION_TYPE":"U","NORAD_CAT_ID":59184,"ELEMENT_SET_NO":999,"REV_AT_EPOCH":9235,"BSTAR":0.00051604,"MEAN_MOTION_DOT":0.00013974,"MEAN_MOTION_DDOT":0},{"OBJECT_NAME":"STARLINK-31394","OBJECT_ID":"2024-045H","EPOCH":"2025-10-24T19:42:43.457184","MEAN_MOTION":15.27584366,"ECCENTRICITY":0.0001444,"INCLINATION":42.9999,"RA_OF_ASC_NODE":129.3518,"ARG_OF_PERICENTER":271.3342,"MEAN_ANOMALY":88.7344,"EPHEMERIS_TYPE":0,"CLASSIFICATION_TYPE":"U","NORAD_CAT_ID":59185,"ELEMENT_SET_NO":999,"REV_AT_EPOCH":9250,"BSTAR":9.4894e-5,"MEAN_MOTION_DOT":2.35e-5,"MEAN_MOTION_DDOT":0},{"OBJECT_NAME":"STARLINK-31403","OBJECT_ID":"2024-045J","EPOCH":"2025-10-24T19:07:44.778720","MEAN_MOTION":15.27591225,"ECCENTRICITY":0.0001593,"INCLINATION":43,"RA_OF_ASC_NODE":118.5625,"ARG_OF_PERICENTER":263.2294,"MEAN_ANOMALY":96.8377,"EPHEMERIS_TYPE":0,"CLASSIFICATION_TYPE":"U","NORAD_CAT_ID":59186,"ELEMENT_SET_NO":999,"REV_AT_EPOCH":9256,"BSTAR":0.00026245,"MEAN_MOTION_DOT":6.969e-5,"MEAN_MOTION_DDOT":0},{"OBJECT_NAME":"STARLINK-31514","OBJECT_ID":"2024-045K","EPOCH":"2025-10-23T23:42:29.871936","MEAN_MOTION":15.27582625,"ECCENTRICITY":6.712e-5,"INCLINATION":42.9993,"RA_OF_ASC_NODE":144.6423,"ARG_OF_PERICENTER":233.659,"MEAN_ANOMALY":126.42,"EPHEMERIS_TYPE":0,"CLASSIFICATION_TYPE":"U","NORAD_CAT_ID":59187,"ELEMENT_SET_NO":999,"REV_AT_EPOCH":9225,"BSTAR":5.4756086e-5,"MEAN_MOTION_DOT":1.245e-5,"MEAN_MOTION_DDOT":0},{"OBJECT_NAME":"STARLINK-31478","OBJECT_ID":"2024-045L","EPOCH":"2025-10-24T07:18:28.545120","MEAN_MOTION":15.27571895,"ECCENTRICITY":7.77e-5,"INCLINATION":43.0023,"RA_OF_ASC_NODE":142.7172,"ARG_OF_PERICENTER":334.931,"MEAN_ANOMALY":25.1504,"EPHEMERIS_TYPE":0,"CLASSIFICATION_TYPE":"U","NORAD_CAT_ID":59188,"ELEMENT_SET_NO":999,"REV_AT_EPOCH":9230,"BSTAR":0.00030019,"MEAN_MOTION_DOT":8.005e-5,"MEAN_MOTION_DDOT":0},{"OBJECT_NAME":"STARLINK-31498","OBJECT_ID":"2024-045M","EPOCH":"2025-10-24T00:04:42.365568","MEAN_MOTION":15.2759,"ECCENTRICITY":0.00014439,"INCLINATION":42.9983,"RA_OF_ASC_NODE":144.7578,"ARG_OF_PERICENTER":262.6281,"MEAN_ANOMALY":97.4406,"EPHEMERIS_TYPE":0,"CLASSIFICATION_TYPE":"U","NORAD_CAT_ID":59189,"ELEMENT_SET_NO":999,"REV_AT_EPOCH":9225,"BSTAR":0.0001542647,"MEAN_MOTION_DOT":3.987e-5,"MEAN_MOTION_DDOT":0},{"OBJECT_NAME":"STARLINK-31563","OBJECT_ID":"2024-045N","EPOCH":"2025-10-24T14:52:37.886016","MEAN_MOTION":15.27579729,"ECCENTRICITY":0.0001505,"INCLINATION":43.0021,"RA_OF_ASC_NODE":140.7939,"ARG_OF_PERICENTER":279.6209,"MEAN_ANOMALY":80.4473,"EPHEMERIS_TYPE":0,"CLASSIFICATION_TYPE":"U","NORAD_CAT_ID":59190,"ELEMENT_SET_NO":999,"REV_AT_EPOCH":9235,"BSTAR":-5.7765e-5,"MEAN_MOTION_DOT":-1.851e-5,"MEAN_MOTION_DDOT":0},{"OBJECT_NAME":"STARLINK-31551","OBJECT_ID":"2024-045P","EPOCH":"2025-10-24T14:36:39.816288","MEAN_MOTION":15.27585744,"ECCENTRICITY":0.0001373,"INCLINATION":43.0011,"RA_OF_ASC_NODE":137.2766,"ARG_OF_PERICENTER":267.75,"MEAN_ANOMALY":92.3194,"EPHEMERIS_TYPE":0,"CLASSIFICATION_TYPE":"U","NORAD_CAT_ID":59191,"ELEMENT_SET_NO":999,"REV_AT_EPOCH":9239,"BSTAR":0.00014166,"MEAN_MOTION_DOT":3.639e-5,"MEAN_MOTION_DDOT":0},{"OBJECT_NAME":"STARLINK-31536","OBJECT_ID":"2024-045Q","EPOCH":"2025-10-24T20:00:03.000384","MEAN_MOTION":15.27558205,"ECCENTRICITY":0.0001628,"INCLINATION":43.001,"RA_OF_ASC_NODE":139.7758,"ARG_OF_PERICENTER":263.7297,"MEAN_ANOMALY":106.9475,"EPHEMERIS_TYPE":0,"CLASSIFICATION_TYPE":"U","NORAD_CAT_ID":59192,"ELEMENT_SET_NO":999,"REV_AT_EPOCH":585,"BSTAR":0.00035686,"MEAN_MOTION_DOT":9.564e-5,"MEAN_MOTION_DDOT":0},{"OBJECT_NAME":"STARLINK-31548","OBJECT_ID":"2024-045R","EPOCH":"2025-10-24T00:13:57.273888","MEAN_MOTION":15.27598317,"ECCENTRICITY":0.00013592,"INCLINATION":42.9992,"RA_OF_ASC_NODE":144.8091,"ARG_OF_PERICENTER":278.3732,"MEAN_ANOMALY":81.6965,"EPHEMERIS_TYPE":0,"CLASSIFICATION_TYPE":"U","NORAD_CAT_ID":59193,"ELEMENT_SET_NO":999,"REV_AT_EPOCH":9225,"BSTAR":0.00028436822,"MEAN_MOTION_DOT":7.576e-5,"MEAN_MOTION_DDOT":0},{"OBJECT_NAME":"STARLINK-31542","OBJECT_ID":"2024-045S","EPOCH":"2025-10-24T14:32:15.487584","MEAN_MOTION":15.27578225,"ECCENTRICITY":0.0001241,"INCLINATION":42.9992,"RA_OF_ASC_NODE":140.6835,"ARG_OF_PERICENTER":270.25,"MEAN_ANOMALY":89.8209,"EPHEMERIS_TYPE":0,"CLASSIFICATION_TYPE":"U","NORAD_CAT_ID":59194,"ELEMENT_SET_NO":999,"REV_AT_EPOCH":9235,"BSTAR":4.2616e-5,"MEAN_MOTION_DOT":9.11e-6,"MEAN_MOTION_DDOT":0}]
